M2 PATHFINDER           
1 45727U 20037E   26199.50045655  .00000761  00000+0  58406-4 0  9994
2 45727  97.8140  31.0865 0012602  52.1110 308.1253 15.04796790330208
NETSAT-4                
1 46504U 20068U   26199.48458632  .00009250  00000+0  19940-3 0  9993
2 46504  97.8607 210.2643 0005145 181.7593 178.3637 15.44824572320603
NETSAT-3                
1 46505U 20068V   26199.44959557  .00009822  00000+0  21995-3 0  9990
2 46505  97.8659 208.4051 0004235 197.1084 163.0021 15.43676171320504
NETSAT-1                
1 46506U 20068W   26199.49119016  .00006429  00000+0  19023-3 0  9993
2 46506  97.8760 202.4040 0002632 243.0014 117.0959 15.35290298320101
NETSAT-2                
1 46507U 20068X   26199.60767840  .00012787  00000+0  25294-3 0  9992
2 46507  97.8619 210.4139 0002650 194.3581 165.7592 15.47257126320592
GREENCUBE (IO-117)      
1 53109U 22080E   26198.22212605 -.00000003  00000+0  00000+0 0  9998
2 53109  70.1407 287.8015 0009072 282.9900  76.9746  6.42583336 93997
SITRO-AIS 5 (KATYS)     
1 57176U 23091L   26199.59746454  .00005954  00000+0  20675-3 0  9997
2 57176  97.5038 263.8079 0010304   0.3225 359.8020 15.30107283169143
SITRO-AIS 6 (CHIRKIN)   
1 57192U 23091AC  26199.58451811  .00004834  00000+0  18797-3 0  9992
2 57192  97.5047 262.7444 0010808   4.7185 355.4153 15.26472247169078
SITRO-AIS 8 (ANOKHIN)   
1 57193U 23091AD  26199.62356349  .00006700  00000+0  21308-3 0  9994
2 57193  97.5035 265.5540 0009150 355.3950   4.7206 15.32909522169269
SITRO-AIS 7 (FARTUSHNIY)
1 57194U 23091AE  26199.59423642  .00004684  00000+0  18402-3 0  9992
2 57194  97.5043 262.5625 0010780   6.0324 354.1042 15.26145318169062
SITRO-AIS 10 (BURDAEV)  
1 57199U 23091AK  26199.58457041  .00010070  00000+0  25692-3 0  9991
2 57199  97.5060 270.9009 0004584 325.9854  34.1097 15.39703222169592
SITRO-AIS 9 (SHCHUKIN)  
1 57201U 23091AM  26199.62124081  .00010036  00000+0  26042-3 0  9997
2 57201  97.5058 270.6431 0004836 326.6587  33.4353 15.39187031169580
SITRO-AIS 12 (SMIRENNIY)
1 57204U 23091AQ  26199.60586939  .00010465  00000+0  26884-3 0  9992
2 57204  97.5071 271.1145 0004457 318.4500  41.6406 15.39482475169602
SITRO-AIS 11 (SHEFFER)  
1 57208U 23091AU  26199.61040378  .00011012  00000+0  27868-3 0  9991
2 57208  97.5069 271.3860 0004392 317.3627  42.7277 15.39929291169627
SITRO-AIS 25            
1 59066U 24039R   26199.59650426  .00001460  00000+0  11568-3 0  9992
2 59066  95.3890 256.6759 0143062 217.4957 141.6225 14.93654020129415
SITRO-AIS 26            
1 59067U 24039S   26199.66921399  .00001253  00000+0  10023-3 0  9996
2 59067  95.3890 256.6170 0143396 217.8564 141.2512 14.93445070129419
SITRO-AIS 27            
1 59068U 24039T   26199.63058256  .00001678  00000+0  13198-3 0  9994
2 59068  95.3895 256.8770 0142513 216.5043 142.6405 14.93869228129434
SITRO-AIS 28            
1 59071U 24039U   26199.60731759  .00001262  00000+0  99913-4 0  9990
2 59071  95.3894 256.9099 0142372 216.4321 142.7153 14.93903530129439
GRBBETA                 
1 60237U 24128C   26199.14570953  .00001676  00000+0  12491-3 0  9995
2 60237  61.9888 107.6324 0036693 141.3297 219.0434 15.06819541110934
OOV-CUBE (TUBSAT-30)    
1 60240U 24128F   26199.32762964  .00000912  00000+0  82295-4 0  9996
2 60240  61.9941 116.9785 0040721 140.6907 219.7153 15.02880941110796
ROBUSTA-3A (MEDITERRAN*)
1 60243U 24128J   26199.22058774  .00003573  00000+0  21668-3 0  9997
2 60243  61.9862  98.4708 0037738 134.2133 226.2073 15.12010670111110
LASARSAT                
1 62391U 24247Q   26198.96507674  .00021749  00000+0  40983-3 0  9999
2 62391  44.9738  89.0178 0007822 183.9645 176.1185 15.48162669 88087
CROCUBE                 
1 62394U 24247T   26199.05143081  .00024720  00000+0  43051-3 0  9992
2 62394  44.9717  85.3241 0007952 190.6183 169.4541 15.50337911 88137
FORESAIL-1 PRIME        
1 66778U 25276DS  26199.55396324  .00002308  00000+0  11370-3 0  9997
2 66778  97.4187 272.2539 0002604  37.5376 322.6040 15.18954100 35161
KNACKSAT-2              
1 67683U 98067XZ  26199.07280907  .00034011  00000+0  37689-3 0  9994
2 67683  51.6275 138.8026 0007917 337.9309  22.1343 15.62605935 25109
